[{"OBJECT_NAME":"STARLINK-3957","OBJECT_ID":"2022-051AF","EPOCH":"2026-03-09T09:01:37.949088","MEAN_MOTION":15.08829814,"ECCENTRICITY":0.00012835,"INCLINATION":53.2167,"RA_OF_ASC_NODE":120.527,"ARG_OF_PERICENTER":82.2359,"MEAN_ANOMALY":277.8779,"EPHEMERIS_TYPE":0,"CLASSIFICATION_TYPE":"U","NORAD_CAT_ID":52562,"ELEMENT_SET_NO":999,"REV_AT_EPOCH":21153,"BSTAR":-9.6119038e-5,"MEAN_MOTION_DOT":-1.817e-5,"MEAN_MOTION_DDOT":0},{"OBJECT_NAME":"CZ-6A DEB","OBJECT_ID":"2024-140EZ","EPOCH":"2026-03-09T16:13:02.096544","MEAN_MOTION":15.06200416,"ECCENTRICITY":0.00757943,"INCLINATION":89.319,"RA_OF_ASC_NODE":303.8689,"ARG_OF_PERICENTER":93.3463,"MEAN_ANOMALY":267.6449,"EPHEMERIS_TYPE":0,"CLASSIFICATION_TYPE":"U","NORAD_CAT_ID":60774,"ELEMENT_SET_NO":999,"REV_AT_EPOCH":8499,"BSTAR":0.003121721,"MEAN_MOTION_DOT":0.00049072,"MEAN_MOTION_DDOT":0}]
